{
  "40258": [
    {
      "epoch": "2026-01-03T11:29:04.280914+00:00",
      "mean_motion": 0.9911476999999999,
      "eccentricity": 0.0003795,
      "inclination": 1.4685,
      "raan": 84.6692,
      "arg_perigee": 179.6326,
      "mean_anomaly": 100.2851,
      "bstar": 0.0,
      "tle_line1": "1 40258U 14058A   26003.47852177 -.00000012  00000-0  00000+0 0  9992",
      "tle_line2": "2 40258   1.4685  84.6692 0003795 179.6326 100.2851  0.99114770 39331",
      "norad_id": 40258,
      "object_name": "LUCH (OLYMP)"
    },
    {
      "epoch": "2026-01-04T01:10:05.988281+00:00",
      "mean_motion": 0.9911468800000001,
      "eccentricity": 0.0003772,
      "inclination": 1.4702,
      "raan": 84.6629,
      "arg_perigee": 180.1733,
      "mean_anomaly": 303.1951,
      "bstar": 0.0,
      "tle_line1": "1 40258U 14058A   26004.04868042  .00000001  00000-0  00000+0 0  9991",
      "tle_line2": "2 40258   1.4702  84.6629 0003772 180.1733 303.1951  0.99114688 39349",
      "norad_id": 40258,
      "object_name": "LUCH (OLYMP)"
    },
    {
      "epoch": "2026-01-04T12:36:05.133911+00:00",
      "mean_motion": 0.9911463499999998,
      "eccentricity": 0.0003742,
      "inclination": 1.4715,
      "raan": 84.6567,
      "arg_perigee": 180.6272,
      "mean_anomaly": 112.7288,
      "bstar": 0.0,
      "tle_line1": "1 40258U 14058A   26004.52505942  .00000011  00000-0  00000+0 0  9992",
      "tle_line2": "2 40258   1.4715  84.6567 0003742 180.6272 112.7288  0.99114635 39343",
      "norad_id": 40258,
      "object_name": "LUCH (OLYMP)"
    },
    {
      "epoch": "2026-01-04T18:54:38.785828+00:00",
      "mean_motion": 0.9911461700000002,
      "eccentricity": 0.0003735,
      "inclination": 1.4723,
      "raan": 84.6541,
      "arg_perigee": 180.8661,
      "mean_anomaly": 206.2967,
      "bstar": 0.0,
      "tle_line1": "1 40258U 14058A   26004.78794891  .00000017  00000-0  00000+0 0  9999",
      "tle_line2": "2 40258   1.4723  84.6541 0003735 180.8661 206.2967  0.99114617 39354",
      "norad_id": 40258,
      "object_name": "LUCH (OLYMP)"
    },
    {
      "epoch": "2026-01-05T02:49:37.485413+00:00",
      "mean_motion": 0.99114621,
      "eccentricity": 0.000371,
      "inclination": 1.4732,
      "raan": 84.6507,
      "arg_perigee": 181.1911,
      "mean_anomaly": 323.671,
      "bstar": 0.0,
      "tle_line1": "1 40258U 14058A   26005.11779497  .00000024  00000-0  00000+0 0  9990",
      "tle_line2": "2 40258   1.4732  84.6507 0003710 181.1911 323.6710  0.99114621 39356",
      "norad_id": 40258,
      "object_name": "LUCH (OLYMP)"
    },
    {
      "epoch": "2026-01-05T09:40:11.538910+00:00",
      "mean_motion": 0.99114628,
      "eccentricity": 0.0003685,
      "inclination": 1.474,
      "raan": 84.6461,
      "arg_perigee": 181.4634,
      "mean_anomaly": 65.1383,
      "bstar": 0.0,
      "tle_line1": "1 40258U 14058A   26005.40291133  .00000031  00000-0  00000+0 0  9996",
      "tle_line2": "2 40258   1.4740  84.6461 0003685 181.4634  65.1383  0.99114628 39351",
      "norad_id": 40258,
      "object_name": "LUCH (OLYMP)"
    },
    {
      "epoch": "2026-01-06T02:46:20.419983+00:00",
      "mean_motion": 0.99114646,
      "eccentricity": 0.0003645,
      "inclination": 1.476,
      "raan": 84.6399,
      "arg_perigee": 182.0991,
      "mean_anomaly": 318.7798,
      "bstar": 0.0,
      "tle_line1": "1 40258U 14058A   26006.11551412  .00000045  00000-0  00000+0 0  9999",
      "tle_line2": "2 40258   1.4760  84.6399 0003645 182.0991 318.7798  0.99114646 39360",
      "norad_id": 40258,
      "object_name": "LUCH (OLYMP)"
    },
    {
      "epoch": "2026-01-06T11:19:38.225281+00:00",
      "mean_motion": 0.9911467999999999,
      "eccentricity": 0.0003611,
      "inclination": 1.477,
      "raan": 84.6353,
      "arg_perigee": 182.4426,
      "mean_anomaly": 85.6313,
      "bstar": 0.0,
      "tle_line1": "1 40258U 14058A   26006.47197020  .00000052  00000-0  00000+0 0  9997",
      "tle_line2": "2 40258   1.4770  84.6353 0003611 182.4426  85.6313  0.99114680 39362",
      "norad_id": 40258,
      "object_name": "LUCH (OLYMP)"
    },
    {
      "epoch": "2026-01-07T02:43:14.756744+00:00",
      "mean_motion": 0.9911455700000001,
      "eccentricity": 0.0003636,
      "inclination": 1.4787,
      "raan": 84.6321,
      "arg_perigee": 182.4072,
      "mean_anomaly": 314.5311,
      "bstar": 0.0,
      "tle_line1": "1 40258U 14058A   26007.11336524  .00000064  00000-0  00000+0 0  9996",
      "tle_line2": "2 40258   1.4787  84.6321 0003636 182.4072 314.5311  0.99114557 39375",
      "norad_id": 40258,
      "object_name": "LUCH (OLYMP)"
    },
    {
      "epoch": "2026-01-07T11:16:25.611176+00:00",
      "mean_motion": 0.9911419700000001,
      "eccentricity": 0.0003568,
      "inclination": 1.4797,
      "raan": 84.628,
      "arg_perigee": 182.5646,
      "mean_anomaly": 81.5382,
      "bstar": 0.0,
      "tle_line1": "1 40258U 14058A   26007.46974087  .00000070  00000-0  00000+0 0  9993",
      "tle_line2": "2 40258   1.4797  84.6280 0003568 182.5646  81.5382  0.99114197 39371",
      "norad_id": 40258,
      "object_name": "LUCH (OLYMP)"
    },
    {
      "epoch": "2026-01-07T20:55:21.679688+00:00",
      "mean_motion": 0.99114264,
      "eccentricity": 0.0003549,
      "inclination": 1.4807,
      "raan": 84.6255,
      "arg_perigee": 182.9018,
      "mean_anomaly": 224.6582,
      "bstar": 0.0,
      "tle_line1": "1 40258U 14058A   26007.87177870  .00000077  00000-0  00000+0 0  9990",
      "tle_line2": "2 40258   1.4807  84.6255 0003549 182.9018 224.6582  0.99114264 39389",
      "norad_id": 40258,
      "object_name": "LUCH (OLYMP)"
    },
    {
      "epoch": "2026-01-08T02:40:04.434814+00:00",
      "mean_motion": 0.99114297,
      "eccentricity": 0.0003535,
      "inclination": 1.4814,
      "raan": 84.6237,
      "arg_perigee": 183.1218,
      "mean_anomaly": 309.8566,
      "bstar": 0.0,
      "tle_line1": "1 40258U 14058A   26008.11116244  .00000081  00000-0  00000+0 0  9991",
      "tle_line2": "2 40258   1.4814  84.6237 0003535 183.1218 309.8566  0.99114297 39381",
      "norad_id": 40258,
      "object_name": "LUCH (OLYMP)"
    },
    {
      "epoch": "2026-01-08T11:13:15.288391+00:00",
      "mean_motion": 0.99114395,
      "eccentricity": 0.0003495,
      "inclination": 1.4823,
      "raan": 84.6193,
      "arg_perigee": 183.4251,
      "mean_anomaly": 76.7189,
      "bstar": 0.0,
      "tle_line1": "1 40258U 14058A   26008.46753806  .00000086  00000-0  00000+0 0  9995",
      "tle_line2": "2 40258   1.4823  84.6193 0003495 183.4251  76.7189  0.99114395 39387",
      "norad_id": 40258,
      "object_name": "LUCH (OLYMP)"
    },
    {
      "epoch": "2026-01-08T23:03:51.390137+00:00",
      "mean_motion": 0.991145,
      "eccentricity": 0.000347,
      "inclination": 1.4836,
      "raan": 84.6145,
      "arg_perigee": 183.7398,
      "mean_anomaly": 252.48990000000003,
      "bstar": 0.0,
      "tle_line1": "1 40258U 14058A   26008.96101146  .00000092  00000-0  00000+0 0  9991",
      "tle_line2": "2 40258   1.4836  84.6145 0003470 183.7398 252.4899  0.99114500 39396",
      "norad_id": 40258,
      "object_name": "LUCH (OLYMP)"
    },
    {
      "epoch": "2026-01-12T19:33:50.609375+00:00",
      "mean_motion": 0.9911602200000001,
      "eccentricity": 0.0003203,
      "inclination": 1.493,
      "raan": 84.5728,
      "arg_perigee": 186.3835,
      "mean_anomaly": 185.1353,
      "bstar": 0.0,
      "tle_line1": "1 40258U 14058A   26012.81516909  .00000101  00000-0  00000+0 0  9998",
      "tle_line2": "2 40258   1.4930  84.5728 0003203 186.3835 185.1353  0.99116022 39439",
      "norad_id": 40258,
      "object_name": "LUCH (OLYMP)"
    },
    {
      "epoch": "2026-01-13T02:24:22.627289+00:00",
      "mean_motion": 0.99116144,
      "eccentricity": 0.0003191,
      "inclination": 1.4937,
      "raan": 84.5703,
      "arg_perigee": 186.5531,
      "mean_anomaly": 286.69660000000005,
      "bstar": 0.0,
      "tle_line1": "1 40258U 14058A   26013.10026189  .00000099  00000-0  00000+0 0  9993",
      "tle_line2": "2 40258   1.4937  84.5703 0003191 186.5531 286.6966  0.99116144 39432",
      "norad_id": 40258,
      "object_name": "LUCH (OLYMP)"
    },
    {
      "epoch": "2026-01-13T10:57:35.284882+00:00",
      "mean_motion": 0.99116301,
      "eccentricity": 0.0003177,
      "inclination": 1.4946,
      "raan": 84.5664,
      "arg_perigee": 186.95690000000002,
      "mean_anomaly": 53.4679,
      "bstar": 0.0,
      "tle_line1": "1 40258U 14058A   26013.45665839  .00000095  00000-0  00000+0 0  9998",
      "tle_line2": "2 40258   1.4946  84.5664 0003177 186.9569  53.4679  0.99116301 39433",
      "norad_id": 40258,
      "object_name": "LUCH (OLYMP)"
    },
    {
      "epoch": "2026-01-14T19:27:12.365875+00:00",
      "mean_motion": 0.99116915,
      "eccentricity": 0.0003121,
      "inclination": 1.4978000000000002,
      "raan": 84.5508,
      "arg_perigee": 187.5711,
      "mean_anomaly": 175.9774,
      "bstar": 0.0,
      "tle_line1": "1 40258U 14058A   26014.81055979  .00000078  00000-0  00000+0 0  9998",
      "tle_line2": "2 40258   1.4978  84.5508 0003121 187.5711 175.9774  0.99116915 39459",
      "norad_id": 40258,
      "object_name": "LUCH (OLYMP)"
    },
    {
      "epoch": "2026-01-15T03:50:19.303284+00:00",
      "mean_motion": 0.99117065,
      "eccentricity": 0.0003111,
      "inclination": 1.4986,
      "raan": 84.5477,
      "arg_perigee": 187.6471,
      "mean_anomaly": 300.5752,
      "bstar": 0.0,
      "tle_line1": "1 40258U 14058A   26015.15994564  .00000072  00000-0  00000+0 0  9992",
      "tle_line2": "2 40258   1.4986  84.5477 0003111 187.6471 300.5752  0.99117065 39455",
      "norad_id": 40258,
      "object_name": "LUCH (OLYMP)"
    }
  ],
  "44878": []
}